{
  "norad_id": 65900,
  "name": "STARLINK-35264",
  "history": [
    {
      "epoch": "2026-03-28T20:38:09.830400Z",
      "apogee_km": 475.88875645515236,
      "perigee_km": 474.4797136092293,
      "latitude_deg": -3.0151233032599497e-05,
      "longitude_deg": 146.176688590816,
      "height_km": 475.9858262987248,
      "semi_major_axis_km": 6853.32123503219,
      "eccentricity": 0.0001028,
      "inclination_deg": 53.1593,
      "raan_deg": 281.9919,
      "arg_perigee_deg": 82.106,
      "mean_anomaly_deg": 278.0057,
      "mean_motion_rev_day": 15.30210327
    },
    {
      "epoch": "2026-03-29T21:43:01.038432Z",
      "apogee_km": 475.98930121527155,
      "perigee_km": 474.42947957681645,
      "latitude_deg": 1.8099030310705529e-06,
      "longitude_deg": 124.07951041139712,
      "height_km": 476.0729797701378,
      "semi_major_axis_km": 6853.346390396044,
      "eccentricity": 0.0001138,
      "inclination_deg": 53.1591,
      "raan_deg": 277.1381,
      "arg_perigee_deg": 87.4594,
      "mean_anomaly_deg": 272.6537,
      "mean_motion_rev_day": 15.30201902
    },
    {
      "epoch": "2026-03-30T05:33:17.355168Z",
      "apogee_km": 476.2274135799489,
      "perigee_km": 474.1453739329254,
      "latitude_deg": 9.101178026033537e-06,
      "longitude_deg": 4.6716400506119236,
      "height_km": 475.98005217098483,
      "semi_major_axis_km": 6853.323393756436,
      "eccentricity": 0.0001519,
      "inclination_deg": 53.1598,
      "raan_deg": 275.6201,
      "arg_perigee_deg": 84.2629,
      "mean_anomaly_deg": 275.8545,
      "mean_motion_rev_day": 15.30209604
    },
    {
      "epoch": "2026-03-30T22:47:52.516896Z",
      "apogee_km": 476.17708421970565,
      "perigee_km": 474.1992145815884,
      "latitude_deg": 7.030019388239011e-05,
      "longitude_deg": 101.98033030620594,
      "height_km": 475.5652388586775,
      "semi_major_axis_km": 6853.325149400646,
      "eccentricity": 0.0001443,
      "inclination_deg": 53.1583,
      "raan_deg": 272.2834,
      "arg_perigee_deg": 58.2177,
      "mean_anomaly_deg": 301.8965,
      "mean_motion_rev_day": 15.30209016
    },
    {
      "epoch": "2026-03-30T22:47:52.517760Z",
      "apogee_km": 476.17735835271196,
      "perigee_km": 474.1989404485821,
      "latitude_deg": 6.718256538278967e-05,
      "longitude_deg": 101.98032437342489,
      "height_km": 475.56509447415914,
      "semi_major_axis_km": 6853.325149400646,
      "eccentricity": 0.00014434,
      "inclination_deg": 53.1583,
      "raan_deg": 272.2834,
      "arg_perigee_deg": 58.2177,
      "mean_anomaly_deg": 301.8965,
      "mean_motion_rev_day": 15.30209016
    }
  ]
}